{
  "links" : {
    "next" : "https://api.nasa.gov/neo/rest/v1/feed?start_date=2004-12-16&end_date=2004-12-16&detailed=true&api_key=t0TVs3DtDT2H8Oy2Zy8m2eVrNsAVKAexjcZXUckd",
    "prev" : "https://api.nasa.gov/neo/rest/v1/feed?start_date=2004-12-14&end_date=2004-12-14&detailed=true&api_key=t0TVs3DtDT2H8Oy2Zy8m2eVrNsAVKAexjcZXUckd",
    "self" : "https://api.nasa.gov/neo/rest/v1/feed?start_date=2004-12-15&end_date=2004-12-15&detailed=true&api_key=t0TVs3DtDT2H8Oy2Zy8m2eVrNsAVKAexjcZXUckd"
  },
  "element_count" : 3,
  "near_earth_objects" : {
    "2004-12-15" : [ {
      "links" : {
        "self" : "https://api.nasa.gov/neo/rest/v1/neo/2003362?api_key=t0TVs3DtDT2H8Oy2Zy8m2eVrNsAVKAexjcZXUckd"
      },
      "neo_reference_id" : "2003362",
      "name" : "3362 Khufu (1984 QA)",
      "nasa_jpl_url" : "http://ssd.jpl.nasa.gov/sbdb.cgi?sstr=2003362",
      "absolute_magnitude_h" : 18.3,
      "estimated_diameter" : {
        "kilometers" : {
          "estimated_diameter_min" : 0.5815070396,
          "estimated_diameter_max" : 1.30028927
        },
        "meters" : {
          "estimated_diameter_min" : 581.5070396458,
          "estimated_diameter_max" : 1300.2892700427
        },
        "miles" : {
          "estimated_diameter_min" : 0.3613316107,
          "estimated_diameter_max" : 0.807962044
        },
        "feet" : {
          "estimated_diameter_min" : 1907.8315559515,
          "estimated_diameter_max" : 4266.0410487267
        }
      },
      "is_potentially_hazardous_asteroid" : true,
      "close_approach_data" : [ {
        "close_approach_date" : "2004-12-15",
        "epoch_date_close_approach" : 1103097600000,
        "relative_velocity" : {
          "kilometers_per_second" : "21.8125551219",
          "kilometers_per_hour" : "78525.198438763",
          "miles_per_hour" : "48792.5045521302"
        },
        "miss_distance" : {
          "astronomical" : "0.2674364783",
          "lunar" : "104.0327911377",
          "kilometers" : "40007928",
          "miles" : "24859774"
        },
        "orbiting_body" : "Earth"
      } ],
      "orbital_data" : {
        "orbit_id" : "23",
        "orbit_determination_date" : "2017-04-06 09:30:43",
        "orbit_uncertainty" : "1",
        "minimum_orbit_intersection" : ".013395",
        "jupiter_tisserand_invariant" : "6.017",
        "epoch_osculation" : "2458000.5",
        "eccentricity" : ".4685677328906181",
        "semi_major_axis" : ".9895267061027037",
        "inclination" : "9.91682854015037",
        "ascending_node_longitude" : "152.4478065215989",
        "orbital_period" : "359.5337847595645",
        "perihelion_distance" : ".5258664207894388",
        "perihelion_argument" : "55.04820444943432",
        "aphelion_distance" : "1.453186991415969",
        "perihelion_time" : "2458083.859959691524",
        "mean_anomaly" : "276.5319456445037",
        "mean_motion" : "1.001296721643968",
        "equinox" : "J2000"
      }
    }, {
      "links" : {
        "self" : "https://api.nasa.gov/neo/rest/v1/neo/2162474?api_key=t0TVs3DtDT2H8Oy2Zy8m2eVrNsAVKAexjcZXUckd"
      },
      "neo_reference_id" : "2162474",
      "name" : "162474 (2000 LB16)",
      "nasa_jpl_url" : "http://ssd.jpl.nasa.gov/sbdb.cgi?sstr=2162474",
      "absolute_magnitude_h" : 18.5,
      "estimated_diameter" : {
        "kilometers" : {
          "estimated_diameter_min" : 0.5303407233,
          "estimated_diameter_max" : 1.1858779086
        },
        "meters" : {
          "estimated_diameter_min" : 530.3407233187,
          "estimated_diameter_max" : 1185.8779085771
        },
        "miles" : {
          "estimated_diameter_min" : 0.3295383456,
          "estimated_diameter_max" : 0.7368701419
        },
        "feet" : {
          "estimated_diameter_min" : 1739.963058693,
          "estimated_diameter_max" : 3890.675677576
        }
      },
      "is_potentially_hazardous_asteroid" : true,
      "close_approach_data" : [ {
        "close_approach_date" : "2004-12-15",
        "epoch_date_close_approach" : 1103097600000,
        "relative_velocity" : {
          "kilometers_per_second" : "29.3603669338",
          "kilometers_per_hour" : "105697.3209617102",
          "miles_per_hour" : "65676.204794236"
        },
        "miss_distance" : {
          "astronomical" : "0.0868240275",
          "lunar" : "33.7745475769",
          "kilometers" : "12988690",
          "miles" : "8070798"
        },
        "orbiting_body" : "Earth"
      } ],
      "orbital_data" : {
        "orbit_id" : "54",
        "orbit_determination_date" : "2017-04-06 09:26:30",
        "orbit_uncertainty" : "0",
        "minimum_orbit_intersection" : ".00526247",
        "jupiter_tisserand_invariant" : "4.771",
        "epoch_osculation" : "2458000.5",
        "eccentricity" : ".3575493930281631",
        "semi_major_axis" : "1.240876267548485",
        "inclination" : "50.70906969070929",
        "ascending_node_longitude" : "80.86779590968979",
        "orbital_period" : "504.8834614181748",
        "perihelion_distance" : ".7972017112634718",
        "perihelion_argument" : "285.2651386435967",
        "aphelion_distance" : "1.684550823833499",
        "perihelion_time" : "2457847.156689635567",
        "mean_anomaly" : "109.3392751985449",
        "mean_motion" : ".7130358340294819",
        "equinox" : "J2000"
      }
    }, {
      "links" : {
        "self" : "https://api.nasa.gov/neo/rest/v1/neo/2345705?api_key=t0TVs3DtDT2H8Oy2Zy8m2eVrNsAVKAexjcZXUckd"
      },
      "neo_reference_id" : "2345705",
      "name" : "345705 (2006 VB14)",
      "nasa_jpl_url" : "http://ssd.jpl.nasa.gov/sbdb.cgi?sstr=2345705",
      "absolute_magnitude_h" : 18.6,
      "estimated_diameter" : {
        "kilometers" : {
          "estimated_diameter_min" : 0.5064714588,
          "estimated_diameter_max" : 1.1325046106
        },
        "meters" : {
          "estimated_diameter_min" : 506.4714588346,
          "estimated_diameter_max" : 1132.5046106177
        },
        "miles" : {
          "estimated_diameter_min" : 0.3147066768,
          "estimated_diameter_max" : 0.7037055224
        },
        "feet" : {
          "estimated_diameter_min" : 1661.651821003,
          "estimated_diameter_max" : 3715.566426699
        }
      },
      "is_potentially_hazardous_asteroid" : false,
      "close_approach_data" : [ {
        "close_approach_date" : "2004-12-15",
        "epoch_date_close_approach" : 1103097600000,
        "relative_velocity" : {
          "kilometers_per_second" : "19.7498798761",
          "kilometers_per_hour" : "71099.5675538419",
          "miles_per_hour" : "44178.5062947747"
        },
        "miss_distance" : {
          "astronomical" : "0.2034038302",
          "lunar" : "79.1240921021",
          "kilometers" : "30428780",
          "miles" : "18907568"
        },
        "orbiting_body" : "Earth"
      } ],
      "orbital_data" : {
        "orbit_id" : "147",
        "orbit_determination_date" : "2017-09-08 06:18:16",
        "orbit_uncertainty" : "0",
        "minimum_orbit_intersection" : ".0795334",
        "jupiter_tisserand_invariant" : "7.382",
        "epoch_osculation" : "2458000.5",
        "eccentricity" : ".4212910392425531",
        "semi_major_axis" : ".7669086794477493",
        "inclination" : "31.02287422538695",
        "ascending_node_longitude" : "258.7334365973851",
        "orbital_period" : "245.3092395762557",
        "perihelion_distance" : ".443816924879073",
        "perihelion_argument" : "346.4354547902304",
        "aphelion_distance" : "1.090000434016426",
        "perihelion_time" : "2458095.757501361373",
        "mean_anomaly" : "220.2062419282247",
        "mean_motion" : "1.467535428432536",
        "equinox" : "J2000"
      }
    } ]
  }
}